OBJECT_NAME,OBJECT_ID,EPOCH,MEAN_MOTION,ECCENTRICITY,INCLINATION,RA_OF_ASC_NODE,ARG_OF_PERICENTER,MEAN_ANOMALY,EPHEMERIS_TYPE,CLASSIFICATION_TYPE,NORAD_CAT_ID,ELEMENT_SET_NO,REV_AT_EPOCH,BSTAR,MEAN_MOTION_DOT,MEAN_MOTION_DDOT
STARS (KUKAI),2009-002G,2026-06-08T18:57:19.554624,14.95691803,.0008179,98.1539,106.7557,186.7555,173.3556,0,U,33498,999,93722,.39073E-3,.4289E-4,0
KKS-1 (KISEKI),2009-002H,2026-06-08T19:45:30.624768,14.83102975,.0007035,98.1193,82.1331,327.2782,32.7994,0,U,33499,999,93495,.17809E-3,.1395E-4,0
UK-DMC 2,2009-041C,2026-06-08T19:40:28.992864,14.76019169,.0001301,97.8828,294.9914,73.2961,286.8391,0,U,35683,999,90533,.17544E-3,.1159E-4,0
OCEANSAT-2,2009-051A,2026-06-08T20:03:25.517664,13.99664177,.0014663,98.2323,147.5202,261.5866,98.3638,0,U,35931,999,87816,.90611E-4,.95E-6,0
SWISSCUBE,2009-051B,2026-06-08T00:00:58.440960,14.62465103,.00054748,98.4042,66.7288,236.3791,123.6888,0,U,35932,999,88781,.23775073E-3,.1155E-4,0
BEESAT-1,2009-051C,2026-06-08T19:50:34.156608,14.61707311,.0003912,98.3972,67.2222,250.2428,109.8351,0,U,35933,999,88796,.17692E-3,.832E-5,0
ITUPSAT1,2009-051E,2026-06-07T23:43:00.084288,14.60427678,.00060745,98.4056,65.5723,268.4530,91.5974,0,U,35935,999,88739,.1903704E-3,.873E-5,0
DMSP 5D-3 F18 (USA 210),2009-057A,2026-06-08T19:07:04.253664,14.14892199,.0009871,98.9034,140.5841,276.3230,83.6818,0,U,35951,999,85840,.16248E-3,.269E-5,0
PROBA-2,2009-059B,2026-06-08T18:44:44.661408,14.54858962,.0012235,98.2451,343.2506,310.6442,49.3691,0,U,36037,999,88030,.58384E-4,.205E-5,0
YAOGAN-7,2009-069A,2026-06-08T10:09:27.251712,14.78001090,.0025957,98.0083,45.3441,68.7505,291.6475,0,U,36110,999,88833,.79015E-4,.52E-5,0
XIWANG-1 (HOPE-1),2009-072B,2026-06-08T19:23:29.422752,13.16438385,.0006799,100.4026,113.7740,252.8596,107.1773,0,U,36122,999,79190,-.59389E-3,-.271E-5,0
COSMOS 2463,2010-017A,2026-06-08T19:32:13.323840,13.71665226,.0036917,82.9608,255.8572,151.4873,331.9553,0,U,36519,999,80678,.36156E-4,.48E-6,0
CARTOSAT-2B,2010-035A,2026-06-08T19:31:05.301120,14.78649618,.001047,97.9954,210.4162,212.5254,147.5313,0,U,36795,999,85861,.47241E-4,.294E-5,0
TISAT 1,2010-035E,2026-06-08T19:40:13.695744,15.31390446,.0000185,98.0700,105.6282,170.3248,189.7995,0,U,36799,999,86642,.66607E-3,.20138E-3,0
YAOGAN-10,2010-038A,2026-06-08T20:59:32.154144,14.85322791,.0001672,97.8983,183.3455,89.2265,34.0397,0,U,36834,999,85597,.12446E-3,.1016E-4,0
SHIJIAN-6 04B (SJ-6 04B),2010-051B,2026-06-08T19:32:16.262304,14.99295504,.0009149,97.8687,165.1392,340.7316,19.3559,0,U,37180,999,85442,.90031E-4,.1038E-4,0
FENGYUN 3B,2010-059A,2026-06-08T21:52:03.927648,14.14840127,.0021454,98.9622,205.8904,207.9264,329.7915,0,U,37214,999,80625,.64204E-4,.79E-6,0
COSMO-SKYMED 4,2010-060A,2026-06-08T09:32:08.023776,14.82162251,.0001414,97.8890,343.1246,83.8256,276.3118,0,U,37216,999,84326,.70656E-4,.51E-5,0
O/OREOS (USA 219),2010-062C,2026-06-08T13:22:02.031744,14.93708178,.0012387,71.9704,99.8869,81.9888,278.2687,0,U,37224,999,11535,.24866E-3,.2574E-4,0
RESOURCESAT-2,2011-015A,2026-06-08T18:48:45.101376,14.21604716,.0010135,98.7644,227.2834,282.6676,77.3368,0,U,37387,999,78498,.523E-4,.7E-6,0
YOUTHSAT,2011-015B,2026-06-08T19:19:35.046336,14.25627015,.0014752,98.3677,134.2375,11.7403,53.9137,0,U,37388,999,78644,.1058E-3,.21E-5,0
APRIZESAT 6,2011-044F,2026-06-08T17:55:00.674976,14.76904004,.0044341,98.2371,70.0737,112.2528,312.6846,0,U,37793,999,79590,.11682E-3,.778E-5,0
JUGNU,2011-058B,2026-06-08T05:51:26.000352,14.13774450,.00185229,19.9622,2.7589,337.7505,350.9134,0,U,37839,999,75775,.83199979E-4,.426E-5,0
SUOMI NPP,2011-061A,2026-06-08T19:28:53.040000,14.19515744,.0001991,98.7952,100.7451,25.3568,334.7705,0,U,37849,999,75725,.60093E-4,.82E-6,0
YAOGAN-12,2011-066B,2026-06-08T21:00:36.537696,15.26497637,.000806,97.1151,198.8345,251.7440,108.2922,0,U,37875,999,81077,.20011E-3,.5158E-4,0
