STARS (KUKAI)           
1 33498U 09002G   26159.78980966  .00004289  00000+0  39073-3 0  9991
2 33498  98.1539 106.7557 0008179 186.7555 173.3556 14.95691803937226
KKS-1 (KISEKI)          
1 33499U 09002H   26159.82327112  .00001395  00000+0  17809-3 0  9993
2 33499  98.1193  82.1331 0007035 327.2782  32.7994 14.83102975934959
UK-DMC 2                
1 35683U 09041C   26159.81978001  .00001159  00000+0  17544-3 0  9995
2 35683  97.8828 294.9914 0001301  73.2961 286.8391 14.76019169905331
OCEANSAT-2              
1 35931U 09051A   26159.83571201  .00000095  00000+0  90611-4 0  9990
2 35931  98.2323 147.5202 0014663 261.5866  98.3638 13.99664177878165
SWISSCUBE               
1 35932U 09051B   26159.00067640  .00001155  00000+0  23775-3 0  9991
2 35932  98.4042  66.7288 0005474 236.3791 123.6888 14.62465103887819
BEESAT-1                
1 35933U 09051C   26159.82678422  .00000832  00000+0  17692-3 0  9990
2 35933  98.3972  67.2222 0003912 250.2428 109.8351 14.61707311887968
ITUPSAT1                
1 35935U 09051E   26158.98819542  .00000873  00000+0  19037-3 0  9998
2 35935  98.4056  65.5723 0006074 268.4530  91.5974 14.60427678887397
DMSP 5D-3 F18 (USA 210) 
1 35951U 09057A   26159.79657701  .00000269  00000+0  16248-3 0  9999
2 35951  98.9034 140.5841 0009871 276.3230  83.6818 14.14892199858406
PROBA-2                 
1 36037U 09059B   26159.78107247  .00000205  00000+0  58384-4 0  9999
2 36037  98.2451 343.2506 0012235 310.6442  49.3691 14.54858962880309
YAOGAN-7                
1 36110U 09069A   26159.42323209  .00000520  00000+0  79015-4 0  9995
2 36110  98.0083  45.3441 0025957  68.7505 291.6475 14.78001090888335
XIWANG-1 (HOPE-1)       
1 36122U 09072B   26159.80797943 -.00000271  00000+0 -59389-3 0  9990
2 36122 100.4026 113.7740 0006799 252.8596 107.1773 13.16438385791904
COSMOS 2463             
1 36519U 10017A   26159.81404310  .00000048  00000+0  36156-4 0  9993
2 36519  82.9608 255.8572 0036917 151.4873 331.9553 13.71665226806785
CARTOSAT-2B             
1 36795U 10035A   26159.81325580  .00000294  00000+0  47241-4 0  9990
2 36795  97.9954 210.4162 0010470 212.5254 147.5313 14.78649618858610
TISAT 1                 
1 36799U 10035E   26159.81960296  .00020138  00000+0  66607-3 0  9998
2 36799  98.0700 105.6282 0000185 170.3248 189.7995 15.31390446866423
YAOGAN-10               
1 36834U 10038A   26159.87467771  .00001016  00000+0  12446-3 0  9993
2 36834  97.8983 183.3455 0001672  89.2265  34.0397 14.85322791855979
SHIJIAN-6 04B (SJ-6 04B)
1 37180U 10051B   26159.81407711  .00001038  00000+0  90031-4 0  9996
2 37180  97.8687 165.1392 0009149 340.7316  19.3559 14.99295504854423
FENGYUN 3B              
1 37214U 10059A   26159.91115657  .00000079  00000+0  64204-4 0  9995
2 37214  98.9622 205.8904 0021454 207.9264 329.7915 14.14840127806258
COSMO-SKYMED 4          
1 37216U 10060A   26159.39731509  .00000510  00000+0  70656-4 0  9999
2 37216  97.8890 343.1246 0001413  83.8256 276.3118 14.82162251843269
O/OREOS (USA 219)       
1 37224U 10062C   26159.55696797  .00002574  00000+0  24866-3 0  9990
2 37224  71.9704  99.8869 0012387  81.9888 278.2687 14.93708178115353
RESOURCESAT-2           
1 37387U 11015A   26159.78385534  .00000070  00000+0  52300-4 0  9992
2 37387  98.7644 227.2834 0010135 282.6676  77.3368 14.21604716784985
YOUTHSAT                
1 37388U 11015B   26159.80526674  .00000210  00000+0  10580-3 0  9997
2 37388  98.3677 134.2375 0014752  11.7403  53.9137 14.25627015786441
APRIZESAT 6             
1 37793U 11044F   26159.74653559  .00000778  00000+0  11682-3 0  9998
2 37793  98.2371  70.0737 0044341 112.2528 312.6846 14.76904004795907
JUGNU                   
1 37839U 11058B   26159.24405093  .00000426  00000+0  83200-4 0  9993
2 37839  19.9622   2.7589 0018522 337.7505 350.9134 14.13774450757752
SUOMI NPP               
1 37849U 11061A   26159.81172500  .00000082  00000+0  60093-4 0  9998
2 37849  98.7952 100.7451 0001991  25.3568 334.7705 14.19515744757256
YAOGAN-12               
1 37875U 11066B   26159.87542289  .00005158  00000+0  20011-3 0  9997
2 37875  97.1151 198.8345 0008060 251.7440 108.2922 15.26497637810778
